STARLINK-35671          
1 66392U 25257N   25333.25002315  .00059103  00000+0  10656-2 0  9998
2 66392  53.1591 328.3121 0001026  62.6050 120.5243 15.49229761  4322
STARLINK-35652          
1 66393U 25257P   25333.25002315 -.00170409  00000+0 -31148-2 0  9993
2 66393  53.1593 328.3156 0001608  70.2201 110.9385 15.49382691  4324
STARLINK-35672          
1 66394U 25257Q   25333.25002315 -.00162046  00000+0 -29588-2 0  9997
2 66394  53.1593 328.3072 0001583  68.0570 116.9349 15.49378605  4324
STARLINK-35681          
1 66395U 25257R   25333.25002315 -.00155633  00000+0 -28396-2 0  9998
2 66395  53.1592 328.3040 0001595  67.8245 119.0873 15.49373880  4166
STARLINK-35669          
1 66396U 25257S   25333.25002315 -.00160331  00000+0 -29269-2 0  9990
2 66396  53.1592 328.2991 0001502  66.6910 122.1344 15.49377841  4322
STARLINK-35510          
1 66397U 25257T   25333.25002315  .00060414  00000+0  10893-2 0  9993
2 66397  53.1592 328.2955 0000862  56.8621 133.9390 15.49220913  4329
STARLINK-35642          
1 66398U 25257U   25333.25002315 -.00176184  00000+0 -32227-2 0  9993
2 66398  53.1594 328.2909 0001535  66.5893 126.0711 15.49385247  4320
STARLINK-35657          
1 66399U 25257V   25333.25002315 -.00155547  00000+0 -28376-2 0  9994
2 66399  53.1594 328.2872 0001664  66.1734 128.3993 15.49376913  4320
STARLINK-35667          
1 66400U 25257W   25333.25002315 -.00162545  00000+0 -29681-2 0  9993
2 66400  53.1595 328.2788 0001624  67.5737 130.8363 15.49378821  4323
STARLINK-35668          
1 66401U 25257X   25333.25002315 -.00157199  00000+0 -28684-2 0  9995
2 66401  53.1595 328.2751 0001626  67.7093 132.6147 15.49377447  4326
STARLINK-35644          
1 66402U 25257Y   25333.25002315 -.00160095  00000+0 -29225-2 0  9997
2 66402  53.1594 328.2829 0001597  67.2584 129.2354 15.49377259  4322
STARLINK-35602          
1 66403U 25257Z   25333.25002315 -.00175818  00000+0 -32158-2 0  9996
2 66403  53.1595 328.2711 0001658  67.1355 135.1083 15.49385379  4324
