CCSDS_OMM_VERS = 2.0
CREATION_DATE  = 
ORIGINATOR     = 

OBJECT_NAME    = STARLINK-35671
OBJECT_ID      = 2025-257N
CENTER_NAME    = EARTH
REF_FRAME      = TEME
TIME_SYSTEM    = UTC
MEAN_ELEMENT_THEORY = SGP/SGP4

EPOCH          = 2025-11-29T06:00:02.000160
MEAN_MOTION    = 15.49229761
ECCENTRICITY   = .00010269
INCLINATION    = 53.1591
RA_OF_ASC_NODE = 328.3121
ARG_OF_PERICENTER = 62.6050
MEAN_ANOMALY   = 120.5243

EPHEMERIS_TYPE = 0
CLASSIFICATION_TYPE = U
NORAD_CAT_ID   = 66392
ELEMENT_SET_NO = 999
REV_AT_EPOCH   = 432
BSTAR          = .106565E-2
MEAN_MOTION_DOT = .59103E-3
MEAN_MOTION_DDOT = 0

CCSDS_OMM_VERS = 2.0
CREATION_DATE  = 
ORIGINATOR     = 

OBJECT_NAME    = STARLINK-35652
OBJECT_ID      = 2025-257P
CENTER_NAME    = EARTH
REF_FRAME      = TEME
TIME_SYSTEM    = UTC
MEAN_ELEMENT_THEORY = SGP/SGP4

EPOCH          = 2025-11-29T06:00:02.000160
MEAN_MOTION    = 15.49382691
ECCENTRICITY   = .00016082
INCLINATION    = 53.1593
RA_OF_ASC_NODE = 328.3156
ARG_OF_PERICENTER = 70.2201
MEAN_ANOMALY   = 110.9385

EPHEMERIS_TYPE = 0
CLASSIFICATION_TYPE = U
NORAD_CAT_ID   = 66393
ELEMENT_SET_NO = 999
REV_AT_EPOCH   = 432
BSTAR          = -.31147965E-2
MEAN_MOTION_DOT = -.170409E-2
MEAN_MOTION_DDOT = 0

CCSDS_OMM_VERS = 2.0
CREATION_DATE  = 
ORIGINATOR     = 

OBJECT_NAME    = STARLINK-35672
OBJECT_ID      = 2025-257Q
CENTER_NAME    = EARTH
REF_FRAME      = TEME
TIME_SYSTEM    = UTC
MEAN_ELEMENT_THEORY = SGP/SGP4

EPOCH          = 2025-11-29T06:00:02.000160
MEAN_MOTION    = 15.49378605
ECCENTRICITY   = .00015838
INCLINATION    = 53.1593
RA_OF_ASC_NODE = 328.3072
ARG_OF_PERICENTER = 68.0570
MEAN_ANOMALY   = 116.9349

EPHEMERIS_TYPE = 0
CLASSIFICATION_TYPE = U
NORAD_CAT_ID   = 66394
ELEMENT_SET_NO = 999
REV_AT_EPOCH   = 432
BSTAR          = -.29588144E-2
MEAN_MOTION_DOT = -.162046E-2
MEAN_MOTION_DDOT = 0

CCSDS_OMM_VERS = 2.0
CREATION_DATE  = 
ORIGINATOR     = 

OBJECT_NAME    = STARLINK-35681
OBJECT_ID      = 2025-257R
CENTER_NAME    = EARTH
REF_FRAME      = TEME
TIME_SYSTEM    = UTC
MEAN_ELEMENT_THEORY = SGP/SGP4

EPOCH          = 2025-11-29T06:00:02.000160
MEAN_MOTION    = 15.49373880
ECCENTRICITY   = .00015951
INCLINATION    = 53.1592
RA_OF_ASC_NODE = 328.3040
ARG_OF_PERICENTER = 67.8245
MEAN_ANOMALY   = 119.0873

EPHEMERIS_TYPE = 0
CLASSIFICATION_TYPE = U
NORAD_CAT_ID   = 66395
ELEMENT_SET_NO = 999
REV_AT_EPOCH   = 416
BSTAR          = -.28395597E-2
MEAN_MOTION_DOT = -.155633E-2
MEAN_MOTION_DDOT = 0

CCSDS_OMM_VERS = 2.0
CREATION_DATE  = 
ORIGINATOR     = 

OBJECT_NAME    = STARLINK-35669
OBJECT_ID      = 2025-257S
CENTER_NAME    = EARTH
REF_FRAME      = TEME
TIME_SYSTEM    = UTC
MEAN_ELEMENT_THEORY = SGP/SGP4

EPOCH          = 2025-11-29T06:00:02.000160
MEAN_MOTION    = 15.49377841
ECCENTRICITY   = .00015028
INCLINATION    = 53.1592
RA_OF_ASC_NODE = 328.2991
ARG_OF_PERICENTER = 66.6910
MEAN_ANOMALY   = 122.1344

EPHEMERIS_TYPE = 0
CLASSIFICATION_TYPE = U
NORAD_CAT_ID   = 66396
ELEMENT_SET_NO = 999
REV_AT_EPOCH   = 432
BSTAR          = -.29268977E-2
MEAN_MOTION_DOT = -.160331E-2
MEAN_MOTION_DDOT = 0

CCSDS_OMM_VERS = 2.0
CREATION_DATE  = 
ORIGINATOR     = 

OBJECT_NAME    = STARLINK-35510
OBJECT_ID      = 2025-257T
CENTER_NAME    = EARTH
REF_FRAME      = TEME
TIME_SYSTEM    = UTC
MEAN_ELEMENT_THEORY = SGP/SGP4

EPOCH          = 2025-11-29T06:00:02.000160
MEAN_MOTION    = 15.49220913
ECCENTRICITY   = .0000862
INCLINATION    = 53.1592
RA_OF_ASC_NODE = 328.2955
ARG_OF_PERICENTER = 56.8621
MEAN_ANOMALY   = 133.9390

EPHEMERIS_TYPE = 0
CLASSIFICATION_TYPE = U
NORAD_CAT_ID   = 66397
ELEMENT_SET_NO = 999
REV_AT_EPOCH   = 432
BSTAR          = .10892741E-2
MEAN_MOTION_DOT = .60414E-3
MEAN_MOTION_DDOT = 0

CCSDS_OMM_VERS = 2.0
CREATION_DATE  = 
ORIGINATOR     = 

OBJECT_NAME    = STARLINK-35642
OBJECT_ID      = 2025-257U
CENTER_NAME    = EARTH
REF_FRAME      = TEME
TIME_SYSTEM    = UTC
MEAN_ELEMENT_THEORY = SGP/SGP4

EPOCH          = 2025-11-29T06:00:02.000160
MEAN_MOTION    = 15.49385247
ECCENTRICITY   = .00015354
INCLINATION    = 53.1594
RA_OF_ASC_NODE = 328.2909
ARG_OF_PERICENTER = 66.5893
MEAN_ANOMALY   = 126.0711

EPHEMERIS_TYPE = 0
CLASSIFICATION_TYPE = U
NORAD_CAT_ID   = 66398
ELEMENT_SET_NO = 999
REV_AT_EPOCH   = 432
BSTAR          = -.32227223E-2
MEAN_MOTION_DOT = -.176184E-2
MEAN_MOTION_DDOT = 0

CCSDS_OMM_VERS = 2.0
CREATION_DATE  = 
ORIGINATOR     = 

OBJECT_NAME    = STARLINK-35657
OBJECT_ID      = 2025-257V
CENTER_NAME    = EARTH
REF_FRAME      = TEME
TIME_SYSTEM    = UTC
MEAN_ELEMENT_THEORY = SGP/SGP4

EPOCH          = 2025-11-29T06:00:02.000160
MEAN_MOTION    = 15.49376913
ECCENTRICITY   = .00016643
INCLINATION    = 53.1594
RA_OF_ASC_NODE = 328.2872
ARG_OF_PERICENTER = 66.1734
MEAN_ANOMALY   = 128.3993

EPHEMERIS_TYPE = 0
CLASSIFICATION_TYPE = U
NORAD_CAT_ID   = 66399
ELEMENT_SET_NO = 999
REV_AT_EPOCH   = 432
BSTAR          = -.2837631E-2
MEAN_MOTION_DOT = -.155547E-2
MEAN_MOTION_DDOT = 0

CCSDS_OMM_VERS = 2.0
CREATION_DATE  = 
ORIGINATOR     = 

OBJECT_NAME    = STARLINK-35667
OBJECT_ID      = 2025-257W
CENTER_NAME    = EARTH
REF_FRAME      = TEME
TIME_SYSTEM    = UTC
MEAN_ELEMENT_THEORY = SGP/SGP4

EPOCH          = 2025-11-29T06:00:02.000160
MEAN_MOTION    = 15.49378821
ECCENTRICITY   = .00016246
INCLINATION    = 53.1595
RA_OF_ASC_NODE = 328.2788
ARG_OF_PERICENTER = 67.5737
MEAN_ANOMALY   = 130.8363

EPHEMERIS_TYPE = 0
CLASSIFICATION_TYPE = U
NORAD_CAT_ID   = 66400
ELEMENT_SET_NO = 999
REV_AT_EPOCH   = 432
BSTAR          = -.29681146E-2
MEAN_MOTION_DOT = -.162545E-2
MEAN_MOTION_DDOT = 0

CCSDS_OMM_VERS = 2.0
CREATION_DATE  = 
ORIGINATOR     = 

OBJECT_NAME    = STARLINK-35668
OBJECT_ID      = 2025-257X
CENTER_NAME    = EARTH
REF_FRAME      = TEME
TIME_SYSTEM    = UTC
MEAN_ELEMENT_THEORY = SGP/SGP4

EPOCH          = 2025-11-29T06:00:02.000160
MEAN_MOTION    = 15.49377447
ECCENTRICITY   = .0001626
INCLINATION    = 53.1595
RA_OF_ASC_NODE = 328.2751
ARG_OF_PERICENTER = 67.7093
MEAN_ANOMALY   = 132.6147

EPHEMERIS_TYPE = 0
CLASSIFICATION_TYPE = U
NORAD_CAT_ID   = 66401
ELEMENT_SET_NO = 999
REV_AT_EPOCH   = 432
BSTAR          = -.28684092E-2
MEAN_MOTION_DOT = -.157199E-2
MEAN_MOTION_DDOT = 0

CCSDS_OMM_VERS = 2.0
CREATION_DATE  = 
ORIGINATOR     = 

OBJECT_NAME    = STARLINK-35644
OBJECT_ID      = 2025-257Y
CENTER_NAME    = EARTH
REF_FRAME      = TEME
TIME_SYSTEM    = UTC
MEAN_ELEMENT_THEORY = SGP/SGP4

EPOCH          = 2025-11-29T06:00:02.000160
MEAN_MOTION    = 15.49377259
ECCENTRICITY   = .00015974
INCLINATION    = 53.1594
RA_OF_ASC_NODE = 328.2829
ARG_OF_PERICENTER = 67.2584
MEAN_ANOMALY   = 129.2354

EPHEMERIS_TYPE = 0
CLASSIFICATION_TYPE = U
NORAD_CAT_ID   = 66402
ELEMENT_SET_NO = 999
REV_AT_EPOCH   = 432
BSTAR          = -.29225177E-2
MEAN_MOTION_DOT = -.160095E-2
MEAN_MOTION_DDOT = 0

CCSDS_OMM_VERS = 2.0
CREATION_DATE  = 
ORIGINATOR     = 

OBJECT_NAME    = STARLINK-35602
OBJECT_ID      = 2025-257Z
CENTER_NAME    = EARTH
REF_FRAME      = TEME
TIME_SYSTEM    = UTC
MEAN_ELEMENT_THEORY = SGP/SGP4

EPOCH          = 2025-11-29T06:00:02.000160
MEAN_MOTION    = 15.49385379
ECCENTRICITY   = .00016589
INCLINATION    = 53.1595
RA_OF_ASC_NODE = 328.2711
ARG_OF_PERICENTER = 67.1355
MEAN_ANOMALY   = 135.1083

EPHEMERIS_TYPE = 0
CLASSIFICATION_TYPE = U
NORAD_CAT_ID   = 66403
ELEMENT_SET_NO = 999
REV_AT_EPOCH   = 432
BSTAR          = -.32158047E-2
MEAN_MOTION_DOT = -.175818E-2
MEAN_MOTION_DDOT = 0

